format  = 'OEF1.1'       ! file format
rectype = 'ML'           ! record type (1L/ML)
refsys  = ECLM J2000     ! default reference system
END_OF_HEADER
mult_19
! Equinoctial elements: a, e*sin(LP), e*cos(LP), tan(i/2)*sin(LN), tan(i/2)*cos(LN), mean long.
 EQU   3.21857983974286E+00  0.136956465042171  0.134896799404953 -0.002454261509227 -0.000741477968946  11.5057894574515
 MJD     50349.49432639 TDT
 MAG  14.702  0.150
! RMS    1.38629E-03   2.54064E-03   7.31569E-03   1.14579E-05   1.61663E-05   2.51803E-01
! EIG   3.25433E-07   4.50148E-07   1.06324E-05   1.59965E-04   1.87104E-03   8.81386E-03
! WEA  -0.09563  -0.28098  -0.82315  -0.00128  -0.00134  -0.48407
 COV   1.921806622804599E-06  2.700701711296238E-06  5.095245664802462E-06
 COV   7.770137336817578E-09  6.843262634390447E-09  2.713462153415799E-04
 COV   6.454843129923221E-06  1.743519801158713E-05  2.710588557936831E-08
 COV   2.771619723859909E-08  6.396470472277549E-04  5.351937981142295E-05
 COV   8.360189555993012E-08  8.868780153681211E-08  1.716826408985344E-03
 COV   1.312826063228110E-10  1.315605460800747E-10  2.668421028906449E-06
 COV   2.613497051248537E-10  2.723083545940704E-06  6.340485218435785E-02
 NOR   2.456582519154773E+08 -3.989784049335497E+10  7.295085612706221E+08
 NOR   2.112143107031543E+09  5.772303850562506E+07  3.816055673428943E+08
 NOR   7.256554754244541E+12 -1.318187318888731E+11 -3.212584451355922E+09
 NOR   1.468447997277805E+10 -6.946675335203438E+10  2.410115889357302E+09
 NOR  -7.869002964055228E+09 -7.897737784505485E+08  1.261810544524938E+09
 NOR   4.914971303003031E+12  3.135219684564257E+11  1.612732923070192E+07
 NOR   2.891175572124759E+10 -1.414399708179674E+08  6.650073052051706E+08
mult_20
! Equinoctial elements: a, e*sin(LP), e*cos(LP), tan(i/2)*sin(LN), tan(i/2)*cos(LN), mean long.
 EQU   3.21866096451149E+00  0.137204690756847  0.135624022423358 -0.002453124841325 -0.000740289377119  11.5302780006322
 MJD     50349.49432639 TDT
 MAG  14.706  0.150
! RMS    1.35703E-03   2.53164E-03   7.28140E-03   1.14550E-05   1.61118E-05   2.50691E-01
! EIG   3.24860E-07   4.49926E-07   1.06097E-05   1.59745E-04   1.87432E-03   8.76785E-03
! WEA  -0.08887  -0.28139  -0.82363  -0.00129  -0.00135  -0.48431
 COV   1.841539023839345E-06  2.542481732686853E-06  4.605115063585783E-06
 COV   7.035294911257550E-09  6.032817161585628E-09  2.555659978202248E-04
 COV   6.409220282008146E-06  1.728731045626514E-05  2.699493430875700E-08
 COV   2.748404061109371E-08  6.345643586142704E-04  5.301885272751448E-05
 COV   8.318984988407397E-08  8.788823704230000E-08  1.700625951340045E-03
 COV   1.312167921116039E-10  1.309604728583799E-10  2.654930122325094E-06
 COV   2.595905979624134E-10  2.697590499454749E-06  6.284577564262035E-02
 NOR   2.461841699701802E+08 -4.001928739317436E+10  7.398308611438288E+08
 NOR   2.116101938238158E+09  5.778632000828243E+07  3.829684229215335E+08
 NOR   7.280382193584478E+12 -1.336902652337415E+11 -3.210347538421170E+09
 NOR   1.470894286646423E+10 -6.973129799372136E+10  2.470746424327887E+09
 NOR  -7.891098054859350E+09 -7.942993798960916E+08  1.280392810749177E+09
 NOR   4.919857675046063E+12  3.136407005186895E+11  1.604279741433123E+07
 NOR   2.894501628968281E+10 -1.417519129830393E+08  6.678888724759648E+08
mult_21
! Equinoctial elements: a, e*sin(LP), e*cos(LP), tan(i/2)*sin(LN), tan(i/2)*cos(LN), mean long.
 EQU   3.21873572527301E+00  0.137452148277312  0.136348521343428 -0.002451987366964 -0.000739104748570  11.5546675368672
 MJD     50349.49432639 TDT
 MAG  14.711  0.150
! RMS    1.33024E-03   2.52267E-03   7.24723E-03   1.14521E-05   1.60576E-05   2.49583E-01
! EIG   3.24289E-07   4.49703E-07   1.05871E-05   1.59516E-04   1.87765E-03   8.72240E-03
! WEA  -0.08204  -0.28178  -0.82408  -0.00130  -0.00135  -0.48452
 COV   1.769526914185721E-06  2.385554673691309E-06  4.119832594318513E-06
 COV   6.301406025905449E-09  5.229930911345406E-09  2.399439356703158E-04
 COV   6.363862423868816E-06  1.714046638874393E-05  2.688421437488997E-08
 COV   2.725370240016241E-08  6.295201341567049E-04  5.252236765409029E-05
 COV   8.277918416790952E-08  8.709562177924820E-08  1.684567562151692E-03
 COV   1.311505614896255E-10  1.303633141123833E-10  2.641501012576150E-06
 COV   2.578458831366420E-10  2.672339132933898E-06  6.229181273919369E-02
 NOR   2.467127983793622E+08 -4.014107467986620E+10  7.501823372170701E+08
 NOR   2.120073132086951E+09  5.784974349391563E+07  3.843350967749775E+08
 NOR   7.304250035555173E+12 -1.355673655675448E+11 -3.208101257061555E+09
 NOR   1.473340630533293E+10 -6.999634743406236E+10  2.532139892145182E+09
 NOR  -7.913244045870269E+09 -7.988265038795087E+08  1.299044894519885E+09
 NOR   4.924753142002946E+12  3.137595356263439E+11  1.595791699084174E+07
 NOR   2.897840132122477E+10 -1.420638644247126E+08  6.707767668483193E+08
